CCSDS_OMM_VERS,COMMENT,CREATION_DATE,ORIGINATOR,OBJECT_NAME,OBJECT_ID,CENTER_NAME,REF_FRAME,TIME_SYSTEM,MEAN_ELEMENT_THEORY,EPOCH,MEAN_MOTION,ECCENTRICITY,INCLINATION,RA_OF_ASC_NODE,ARG_OF_PERICENTER,MEAN_ANOMALY,EPHEMERIS_TYPE,CLASSIFICATION_TYPE,NORAD_CAT_ID,ELEMENT_SET_NO,REV_AT_EPOCH,BSTAR,MEAN_MOTION_DOT,MEAN_MOTION_DDOT,SEMIMAJOR_AXIS,PERIOD,APOAPSIS,PERIAPSIS,OBJECT_TYPE,RCS_SIZE,COUNTRY_CODE,LAUNCH_DATE,SITE,DECAY_DATE,FILE,GP_ID,TLE_LINE0,TLE_LINE1,TLE_LINE2
"2.0","GENERATED VIA SPACE-TRACK.ORG API","2023-01-02T22:46:14","18 SPCS","ARIANE 44P R/B","1991-026B","EARTH","TEME","UTC","SGP4","2023-01-02T14:17:41.568000","2.31169175","0.71903290","4.3717","11.5597","71.0996","349.8862","0","U","21223","999","24349","0.00128740000000","0.00000289","0.0000000000000","24161.018","622.920","35155.450","410.316","ROCKET BODY","LARGE","FR","1991-04-04","FRGUI","","3729632","222035977","0 ARIANE 44P R/B","1 21223U 91026B   23002.59562000  .00000289  00000-0  12874-2 0  9995","2 21223   4.3717  11.5597 7190329  71.0996 349.8862  2.31169175243492"
"2.0","GENERATED VIA SPACE-TRACK.ORG API","2023-01-01T17:55:23","18 SPCS","ARIANE 44P R/B","1991-026B","EARTH","TEME","UTC","SGP4","2023-01-01T07:09:15.490080","2.31168113","0.71904180","4.3702","12.0292","70.1059","350.0870","0","U","21223","999","24348","0.00148960000000","0.00000345","0.0000000000000","24161.092","622.923","35155.792","410.122","ROCKET BODY","LARGE","FR","1991-04-04","FRGUI","","3728759","221913933","0 ARIANE 44P R/B","1 21223U 91026B   23001.29809595  .00000345  00000-0  14896-2 0  9993","2 21223   4.3702  12.0292 7190418  70.1059 350.0870  2.31168113243486"
"2.0","GENERATED VIA SPACE-TRACK.ORG API","2023-01-02T17:42:09","18 SPCS","ARIANE 44P R/B","1991-026B","EARTH","TEME","UTC","SGP4","2023-01-02T03:54:52.881984","2.31168887","0.71903570","4.3713","11.7177","70.7667","349.9527","0","U","21223","999","24350","0.00143840000000","0.00000337","0.0000000000000","24161.038","622.921","35155.552","410.254","ROCKET BODY","LARGE","FR","1991-04-04","FRGUI","","3729583","222014096","0 ARIANE 44P R/B","1 21223U 91026B   23002.16311206  .00000337  00000-0  14384-2 0  9990","2 21223   4.3713  11.7177 7190357  70.7667 349.9527  2.31168887243506"
"2.0","GENERATED VIA SPACE-TRACK.ORG API","2023-01-02T02:38:49","18 SPCS","SPACENET 4 R/B(PAM-D)","1991-028C","EARTH","TEME","UTC","SGP4","2023-01-01T19:02:50.788032","2.19704568","0.68980520","22.2663","282.9289","315.7394","9.6944","0","U","21229","999","25454","0.00000000000000","-0.00000139","0.0000000000000","24994.385","655.426","35857.506","1374.993","ROCKET BODY","LARGE","US","1991-04-13","AFETR","","3728952","221971294","0 SPACENET 4 R/B(PAM-D)","1 21229U 91028C   23001.79364338 -.00000139  00000-0  00000-0 0  9999","2 21229  22.2663 282.9289 6898052 315.7394   9.6944  2.19704568254543"
"2.0","GENERATED VIA SPACE-TRACK.ORG API","2023-01-01T17:55:23","18 SPCS","SPACENET 4 R/B(PAM-D)","1991-028C","EARTH","TEME","UTC","SGP4","2023-01-01T05:51:42.537312","2.19704545","0.68980720","22.2673","283.0838","315.4630","295.1574","0","U","21229","999","25452","0.00000000000000","-0.00000153","0.0000000000000","24994.386","655.426","35857.559","1374.944","ROCKET BODY","LARGE","US","1991-04-13","AFETR","","3728759","221914434","0 SPACENET 4 R/B(PAM-D)","1 21229U 91028C   23001.24424233 -.00000153  00000-0  00000-0 0  9996","2 21229  22.2673 283.0838 6898072 315.4630 295.1574  2.19704545254522"
"2.0","GENERATED VIA SPACE-TRACK.ORG API","2023-01-03T02:40:54","18 SPCS","SPACENET 4 R/B(PAM-D)","1991-028C","EARTH","TEME","UTC","SGP4","2023-01-02T16:47:43.121760","2.19704602","0.68979980","22.2647","282.6739","316.1948","6.4030","0","U","21229","999","25455","0.00000000000000","-0.00000115","0.0000000000000","24994.382","655.426","35857.367","1375.127","ROCKET BODY","LARGE","US","1991-04-13","AFETR","","3729873","222047640","0 SPACENET 4 R/B(PAM-D)","1 21229U 91028C   23002.69980465 -.00000115  00000-0  00000-0 0  9998","2 21229  22.2647 282.6739 6897998 316.1948   6.4030  2.19704602254551"
"2.0","GENERATED VIA SPACE-TRACK.ORG API","2023-01-01T17:55:23","18 SPCS","AURORA 2 R/B(PAM-D)","1991-037C","EARTH","TEME","UTC","SGP4","2023-01-01T05:36:27.594144","2.22006306","0.68495010","24.3133","34.9869","52.0561","44.3483","0","U","21394","999","25635","0.00000000000000","-0.00000276","0.0000000000000","24821.325","648.630","35444.560","1441.821","ROCKET BODY","LARGE","US","1991-05-29","AFETR","","3728759","221915185","0 AURORA 2 R/B(PAM-D)","1 21394U 91037C   23001.23365271 -.00000276  00000-0  00000-0 0  9990","2 21394  24.3133  34.9869 6849501  52.0561  44.3483  2.22006306256356"
"2.0","GENERATED VIA SPACE-TRACK.ORG API","2023-01-02T17:42:09","18 SPCS","AURORA 2 R/B(PAM-D)","1991-037C","EARTH","TEME","UTC","SGP4","2023-01-02T01:46:36.329376","2.22006405","0.68493870","24.3144","34.7540","52.4622","355.9901","0","U","21394","999","25637","0.00000000000000","-0.00000267","0.0000000000000","24821.318","648.630","35444.264","1442.102","ROCKET BODY","LARGE","US","1991-05-29","AFETR","","3729583","222013358","0 AURORA 2 R/B(PAM-D)","1 21394U 91037C   23002.07403159 -.00000267  00000-0  00000-0 0  9991","2 21394  24.3144  34.7540 6849387  52.4622 355.9901  2.22006405256374"
"2.0","GENERATED VIA SPACE-TRACK.ORG API","2023-01-04T18:02:30","18 SPCS","MOLNIYA 1-81","1991-043A","EARTH","TEME","UTC","SGP4","2023-01-02T21:49:19.669152","2.00618353","0.70664170","64.0002","318.8330","265.9067","18.0024","0","U","21426","999","23116","0.00000000000000","-0.00000176","0.0000000000000","26555.515","717.781","38942.615","1412.146","PAYLOAD","LARGE","CIS","1991-06-18","PKMTR","","3731823","222142273","0 MOLNIYA 1-81","1 21426U 91043A   23002.90925543 -.00000176  00000-0  00000-0 0  9991","2 21426  64.0002 318.8330 7066417 265.9067  18.0024  2.00618353231167"
"2.0","GENERATED VIA SPACE-TRACK.ORG API","2023-01-03T22:36:14","18 SPCS","MOLNIYA 1-81","1991-043A","EARTH","TEME","UTC","SGP4","2023-01-02T21:49:19.669152","2.00618353","0.70664170","64.0002","318.8330","265.9067","18.0024","0","U","21426","999","23114","0.00000000000000","-0.00000176","0.0000000000000","26555.515","717.781","38942.615","1412.146","PAYLOAD","LARGE","CIS","1991-06-18","PKMTR","","3730764","222086543","0 MOLNIYA 1-81","1 21426U 91043A   23002.90925543 -.00000176  00000-0  00000+0 0  9990","2 21426  64.0002 318.8330 7066417 265.9067  18.0024  2.00618353231145"
"2.0","GENERATED VIA SPACE-TRACK.ORG API","2023-01-02T17:42:09","18 SPCS","SL-6 R/B(2)","1991-043D","EARTH","TEME","UTC","SGP4","2023-01-02T03:20:20.934816","1.96660388","0.70844930","64.4229","35.9156","269.4387","16.3946","0","U","21429","999","22654","0.00000000000000","0.00000624","0.0000000000000","26910.633","732.227","39597.317","1467.679","ROCKET BODY","LARGE","CIS","1991-06-18","PKMTR","","3729583","222013852","0 SL-6 R/B(2)","1 21429U 91043D   23002.13913119  .00000624  00000-0  00000-0 0  9992","2 21429  64.4229  35.9156 7084493 269.4387  16.3946  1.96660388226545"
"2.0","GENERATED VIA SPACE-TRACK.ORG API","2023-01-02T14:46:14","18 SPCS","SL-6 R/B(2)","1991-043D","EARTH","TEME","UTC","SGP4","2023-01-02T03:20:20.988384","1.96660337","0.70845080","64.4228","35.9159","269.4386","16.3946","0","U","21429","999","22656","0.00000000000000","0.00000624","0.0000000000000","26910.638","732.227","39597.365","1467.640","ROCKET BODY","LARGE","CIS","1991-06-18","PKMTR","","3729371","222002574","0 SL-6 R/B(2)","1 21429U 91043D   23002.13913181  .00000624  00000-0  00000+0 0  9990","2 21429  64.4228  35.9159 7084508 269.4386  16.3946  1.96660337226569"
"2.0","GENERATED VIA SPACE-TRACK.ORG API","2023-01-03T02:40:54","18 SPCS","NAVSTAR 23 (USA 71)","1991-047A","EARTH","TEME","UTC","SGP4","2023-01-01T22:05:57.572736","1.91857385","0.00342650","56.1342","37.3204","113.5403","216.6997","0","U","21552","999","22716","0.00000000000000","-0.00000090","0.0000000000000","27357.904","750.558","21073.511","20886.028","PAYLOAD","LARGE","US","1991-07-04","AFETR","","3729873","222047164","0 NAVSTAR 23 (USA 71)","1 21552U 91047A   23001.92080524 -.00000090  00000-0  00000-0 0  9992","2 21552  56.1342  37.3204 0034265 113.5403 216.6997  1.91857385227169"
"2.0","GENERATED VIA SPACE-TRACK.ORG API","2023-01-03T02:40:54","18 SPCS","CRRES DEB (CANISTER)","1990-065D","EARTH","TEME","UTC","SGP4","2023-01-02T10:59:05.404416","2.53078526","0.70206030","18.6076","5.4777","188.1882","147.3303","0","U","21588","999","9414","0.00027041000000","0.00000208","0.0000000000000","22745.648","568.993","32336.329","398.696","DEBRIS","MEDIUM","US","1990-07-25","AFETR","","3729873","222047414","0 CRRES DEB (CANISTER)","1 21588U 90065D   23002.45770144  .00000208  00000-0  27041-3 0  9990","2 21588  18.6076   5.4777 7020603 188.1882 147.3303  2.53078526 94145"
"2.0","GENERATED VIA SPACE-TRACK.ORG API","2023-01-02T17:42:09","18 SPCS","CRRES DEB (CANISTER)","1990-065D","EARTH","TEME","UTC","SGP4","2023-01-02T01:31:59.176704","2.53078391","0.70206240","18.6071","5.6454","187.8787","148.5271","0","U","21588","999","9413","0.00027241000000","0.00000193","0.0000000000000","22745.656","568.994","32336.391","398.651","DEBRIS","MEDIUM","US","1990-07-25","AFETR","","3729583","222012870","0 CRRES DEB (CANISTER)","1 21588U 90065D   23002.06387936  .00000193  00000-0  27241-3 0  9995","2 21588  18.6071   5.6454 7020624 187.8787 148.5271  2.53078391 94133"
"2.0","GENERATED VIA SPACE-TRACK.ORG API","2023-01-02T14:56:14","18 SPCS","CRRES DEB (CANISTER)","1990-065D","EARTH","TEME","UTC","SGP4","2023-01-02T01:31:59.176704","2.53078391","0.70206240","18.6071","5.6454","187.8787","148.5271","0","U","21588","999","27876","0.00027241000000","0.00000193","0.0000000000000","22745.656","568.994","32336.391","398.651","DEBRIS","MEDIUM","US","1990-07-25","AFETR","","3729426","222003780","0 CRRES DEB (CANISTER)","1 21588U 90065D   23002.06387936  .00000193  00000-0  27241-3 0  9995","2 21588  18.6071   5.6454 7020624 187.8787 148.5271  2.53078391278766"
